OBJECT_NAME,OBJECT_ID,EPOCH,MEAN_MOTION,ECCENTRICITY,INCLINATION,RA_OF_ASC_NODE,ARG_OF_PERICENTER,MEAN_ANOMALY,EPHEMERIS_TYPE,CLASSIFICATION_TYPE,NORAD_CAT_ID,ELEMENT_SET_NO,REV_AT_EPOCH,BSTAR,MEAN_MOTION_DOT,MEAN_MOTION_DDOT
KUZGTU 1 (RS47S),2023-091AV,2026-06-08T11:09:51.532128,15.29659250,.00123,97.5066,223.8576,124.8438,235.3960,0,U,57217,999,16304,.40203E-3,.11507E-3,0
SONATE-2,2024-043Q,2026-06-08T09:44:07.537056,15.58061351,.0006671,97.5527,309.2685,225.6872,134.3836,0,U,59112,999,12652,.45675E-3,.34305E-3,0
MESAT1,2024-125G,2026-06-08T12:37:15.671712,15.62273383,.000885,97.2315,16.8158,238.0422,121.9977,0,U,60209,999,10821,.61648E-3,.54583E-3,0
OOV-CUBE (TUBSAT-30),2024-128F,2026-06-08T11:19:27.408864,15.02736717,.0045737,61.9950,255.9620,131.8030,228.6982,0,U,60240,999,10480,.19712E-3,.2491E-4,0
COLIBRI-S (RS67S),2024-199M,2026-06-08T11:05:11.299776,15.47361394,.0006615,97.3007,33.2385,320.6363,39.4406,0,U,61746,999,13606,.38021E-3,.1938E-3,0
HORS 3 (RS81S),2024-199U,2026-06-08T11:09:05.239872,15.54369078,.0004329,97.2990,35.1352,329.5776,30.5227,0,U,61753,999,13620,.47395E-3,.31037E-3,0
HORS 4 (RS82S),2024-199V,2026-06-08T12:21:50.287104,15.58873209,.0003233,97.2938,36.3332,317.7464,42.3543,0,U,61754,999,13629,.62645E-3,.48601E-3,0
ARCTICSAT 1 (RS74S),2024-199AD,2026-06-07T21:52:57.149184,16.07470356,.00075639,97.2849,42.4330,203.5095,156.5843,0,U,61762,999,13663,.12929037E-2,.1015373E-1,.58519134E-3
SIT-2086,2024-199AF,2026-06-08T11:55:18.712704,15.52486374,.0004515,97.2947,35.6748,300.4241,59.6565,0,U,61764,999,13308,.59009E-3,.36148E-3,0
HYPERVIEW 1G (RS66S),2024-199AP,2026-06-08T11:36:47.460096,15.73608319,.0002177,97.2891,38.7770,278.5360,81.5657,0,U,61772,999,13330,.91808E-3,.129794E-2,0
ALTAIR (RS65S),2024-199AW,2026-06-08T10:52:06.849984,15.36852382,.0011987,97.3043,28.8619,345.8746,14.2162,0,U,61779,999,13577,.28993E-3,.10389E-3,0
ASRTU-1 (AO-123),2024-199AY,2026-06-08T11:57:38.126016,15.35551609,.0013215,97.3014,28.2477,347.6657,12.4261,0,U,61781,999,13259,.23079E-3,.7916E-4,0
SAMSAT-IONOSPHERE (RS75S),2024-199BB,2026-06-08T12:18:50.721984,15.56871965,.0006312,97.2960,35.2006,321.8073,38.2734,0,U,61784,999,13621,.65705E-3,.47329E-3,0
RTU MIREA 1 (RS51S),2024-199BC,2026-06-08T11:48:37.185984,15.60140521,.0005669,97.2948,35.9672,315.4315,44.6486,0,U,61785,999,13311,.69978E-3,.57056E-3,0
TEVEL2-4,2025-052D,2026-06-07T15:52:08.883552,15.34277122,.00043543,97.3922,55.0407,120.1889,239.9786,0,U,63213,999,6865,.6171933E-3,.20438E-3,0
TEVEL2-5,2025-052E,2026-06-08T11:07:15.199104,15.34134140,.0004394,97.3910,55.7922,121.6229,238.5443,0,U,63214,999,6877,.4984E-3,.16406E-3,0
TEVEL2-6,2025-052F,2026-06-08T05:09:00.372960,15.34088018,.0004415,97.3912,55.5275,121.5489,238.6185,0,U,63215,999,6873,.47787E-3,.15702E-3,0
TEVEL2-1,2025-052H,2026-06-08T05:46:22.009728,15.33568729,.0004189,97.3889,55.1881,130.0273,230.1338,0,U,63217,999,6872,.47132E-3,.15233E-3,0
TEVEL2-3,2025-052J,2026-06-08T05:39:06.501024,15.33621807,.0004279,97.3889,55.2041,131.4338,228.7272,0,U,63218,999,6872,.46859E-3,.1517E-3,0
TEVEL2-2,2025-052K,2026-06-08T04:12:55.772064,15.33574364,.00041967,97.3886,55.1258,132.1284,228.0316,0,U,63219,999,6871,.47570709E-3,.15378E-3,0
TEVEL2-9,2025-052AD,2026-06-08T04:57:50.158656,15.31621079,.0006909,97.3948,54.5513,156.1696,203.9867,0,U,63237,999,6865,.45172E-3,.13734E-3,0
TEVEL2-7,2025-052AE,2026-06-08T05:54:17.410176,15.31335451,.0007005,97.3948,54.5102,156.9865,203.1691,0,U,63238,999,6865,.45614E-3,.13747E-3,0
TEVEL2-8,2025-052AF,2026-06-08T10:48:19.844352,15.31323830,.0007062,97.3950,54.6910,156.6692,203.4871,0,U,63239,999,6868,.46163E-3,.13909E-3,0
INNOSAT 16 (RS92S7),2025-155C,2026-06-08T11:22:57.073152,15.25364822,.0009503,97.4558,126.6305,206.9551,153.1194,0,U,64878,999,7934,.21425E-3,.5338E-4,0
GEOSCAN 6 (RS92S6),2025-155D,2026-06-08T11:36:19.905408,15.29989513,.0007167,97.4552,128.0029,192.2278,167.8790,0,U,64879,999,7943,.3487E-3,.10056E-3,0
GEOSCAN 1 (RS92S1),2025-155E,2026-06-08T11:44:40.608960,15.30572336,.0007099,97.4548,128.1492,191.8929,168.2145,0,U,64880,999,7944,.36788E-3,.10808E-3,0
239ALFEROV (RS61S),2025-155F,2026-06-08T11:18:38.318112,15.32706504,.0006776,97.4549,128.6636,188.3127,171.8004,0,U,64881,999,7947,.40318E-3,.12671E-3,0
GEOSCAN 2 (RS92S2),2025-155Q,2026-06-08T11:37:48.036000,15.30843727,.0006977,97.4547,128.2935,176.9567,183.1717,0,U,64890,999,7945,.35694E-3,.10572E-3,0
GEOSCAN 5 (RS92S5),2025-155R,2026-06-08T11:05:26.320416,15.33024929,.0005458,97.4541,128.7885,191.2948,168.8172,0,U,64891,999,7948,.40481E-3,.12847E-3,0
GEOSCAN 4 (RS92S4),2025-155S,2026-06-08T10:43:54.948864,15.33174122,.0005512,97.4545,128.8194,191.7981,168.3133,0,U,64892,999,7948,.40192E-3,.12815E-3,0
