KUZGTU 1 (RS47S)        
1 57217U 23091AV  26159.46517977  .00011507  00000+0  40203-3 0  9991
2 57217  97.5066 223.8576 0012300 124.8438 235.3960 15.29659250163042
SONATE-2                
1 59112U 24043Q   26159.40564279  .00034305  00000+0  45675-3 0  9995
2 59112  97.5527 309.2685 0006671 225.6872 134.3836 15.58061351126529
MESAT1                  
1 60209U 24125G   26159.52587583  .00054583  00000+0  61648-3 0  9999
2 60209  97.2315  16.8158 0008850 238.0422 121.9977 15.62273383108215
OOV-CUBE (TUBSAT-30)    
1 60240U 24128F   26159.47184501  .00002491  00000+0  19712-3 0  9990
2 60240  61.9950 255.9620 0045737 131.8030 228.6982 15.02736717104804
COLIBRI-S (RS67S)       
1 61746U 24199M   26159.46193634  .00019380  00000+0  38021-3 0  9995
2 61746  97.3007  33.2385 0006615 320.6363  39.4406 15.47361394136062
HORS 3 (RS81S)          
1 61753U 24199U   26159.46464398  .00031037  00000+0  47395-3 0  9998
2 61753  97.2990  35.1352 0004329 329.5776  30.5227 15.54369078136205
HORS 4 (RS82S)          
1 61754U 24199V   26159.51516536  .00048601  00000+0  62645-3 0  9997
2 61754  97.2938  36.3332 0003233 317.7464  42.3543 15.58873209136296
ARCTICSAT 1 (RS74S)     
1 61762U 24199AD  26158.91177256  .01015373  58519-3  12929-2 0  9993
2 61762  97.2849  42.4330 0007563 203.5095 156.5843 16.07470356136634
SIT-2086                
1 61764U 24199AF  26159.49674436  .00036148  00000+0  59009-3 0  9992
2 61764  97.2947  35.6748 0004515 300.4241  59.6565 15.52486374133082
HYPERVIEW 1G (RS66S)    
1 61772U 24199AP  26159.48388264  .00129794  00000+0  91808-3 0  9994
2 61772  97.2891  38.7770 0002177 278.5360  81.5657 15.73608319133306
ALTAIR (RS65S)          
1 61779U 24199AW  26159.45285706  .00010389  00000+0  28993-3 0  9999
2 61779  97.3043  28.8619 0011987 345.8746  14.2162 15.36852382135777
ASRTU-1 (AO-123)        
1 61781U 24199AY  26159.49835794  .00007916  00000+0  23079-3 0  9996
2 61781  97.3014  28.2477 0013215 347.6657  12.4261 15.35551609132595
SAMSAT-IONOSPHERE (RS7*)
1 61784U 24199BB  26159.51308706  .00047329  00000+0  65705-3 0  9994
2 61784  97.2960  35.2006 0006312 321.8073  38.2734 15.56871965136216
RTU MIREA 1 (RS51S)     
1 61785U 24199BC  26159.49209706  .00057056  00000+0  69978-3 0  9996
2 61785  97.2948  35.9672 0005669 315.4315  44.6486 15.60140521133114
TEVEL2-4                
1 63213U 25052D   26158.66121393  .00020438  00000+0  61719-3 0  9995
2 63213  97.3922  55.0407 0004354 120.1889 239.9786 15.34277122 68658
TEVEL2-5                
1 63214U 25052E   26159.46337036  .00016406  00000+0  49840-3 0  9999
2 63214  97.3910  55.7922 0004394 121.6229 238.5443 15.34134140 68773
TEVEL2-6                
1 63215U 25052F   26159.21458765  .00015702  00000+0  47787-3 0  9992
2 63215  97.3912  55.5275 0004415 121.5489 238.6185 15.34088018 68738
TEVEL2-1                
1 63217U 25052H   26159.24053252  .00015233  00000+0  47132-3 0  9992
2 63217  97.3889  55.1881 0004189 130.0273 230.1338 15.33568729 68723
TEVEL2-3                
1 63218U 25052J   26159.23549191  .00015170  00000+0  46859-3 0  9999
2 63218  97.3889  55.2041 0004279 131.4338 228.7272 15.33621807 68727
TEVEL2-2                
1 63219U 25052K   26159.17564551  .00015378  00000+0  47571-3 0  9992
2 63219  97.3886  55.1258 0004196 132.1284 228.0316 15.33574364 68716
TEVEL2-9                
1 63237U 25052AD  26159.20683054  .00013734  00000+0  45172-3 0  9995
2 63237  97.3948  54.5513 0006909 156.1696 203.9867 15.31621079 68659
TEVEL2-7                
1 63238U 25052AE  26159.24603484  .00013747  00000+0  45614-3 0  9994
2 63238  97.3948  54.5102 0007005 156.9865 203.1691 15.31335451 68651
TEVEL2-8                
1 63239U 25052AF  26159.45022968  .00013909  00000+0  46163-3 0  9990
2 63239  97.3950  54.6910 0007062 156.6692 203.4871 15.31323830 68685
INNOSAT 16 (RS92S7)     
1 64878U 25155C   26159.47427168  .00005338  00000+0  21425-3 0  9998
2 64878  97.4558 126.6305 0009503 206.9551 153.1194 15.25364822 79346
GEOSCAN 6 (RS92S6)      
1 64879U 25155D   26159.48356372  .00010056  00000+0  34870-3 0  9999
2 64879  97.4552 128.0029 0007167 192.2278 167.8790 15.29989513 79435
GEOSCAN 1 (RS92S1)      
1 64880U 25155E   26159.48935890  .00010808  00000+0  36788-3 0  9994
2 64880  97.4548 128.1492 0007099 191.8929 168.2145 15.30572336 79442
239ALFEROV (RS61S)      
1 64881U 25155F   26159.47127683  .00012671  00000+0  40318-3 0  9991
2 64881  97.4549 128.6636 0006776 188.3127 171.8004 15.32706504 79476
GEOSCAN 2 (RS92S2)      
1 64890U 25155Q   26159.48458375  .00010572  00000+0  35694-3 0  9996
2 64890  97.4547 128.2935 0006977 176.9567 183.1717 15.30843727 79458
GEOSCAN 5 (RS92S5)      
1 64891U 25155R   26159.46211019  .00012847  00000+0  40481-3 0  9994
2 64891  97.4541 128.7885 0005458 191.2948 168.8172 15.33024929 79484
GEOSCAN 4 (RS92S4)      
1 64892U 25155S   26159.44716376  .00012815  00000+0  40192-3 0  9993
2 64892  97.4545 128.8194 0005512 191.7981 168.3133 15.33174122 79489
